start=new Date('2023-03-15T00:00:00.000Z').valueOf();
sats=[{"REF_FRAME":"TEME","EPOCH":"2023-03-14T18:21:52.784928","APOAPSIS":"550.703","PERIAPSIS":"548.734","FILE":"3860643","INCLINATION":"53.0541","MEAN_ANOMALY":"259.8843","PERIOD":"95.644","CLASSIFICATION_TYPE":"U","TLE_LINE1":"1 44747U 19074AL  23073.76519427  .00008995  00000-0  63566-3 0  9993","DECAY_DATE":null,"NORAD_CAT_ID":"44747","ECCENTRICITY":"0.00014210","OBJECT_TYPE":"PAYLOAD","MEAN_MOTION_DDOT":"0.0000000000000","MEAN_MOTION_DOT":"0.00008995","CENTER_NAME":"EARTH","RA_OF_ASC_NODE":"83.7956","SEMIMAJOR_AXIS":"6927.853","LAUNCH_DATE":"2019-11-11","RCS_SIZE":"LARGE","TLE_LINE2":"2 44747  53.0541  83.7956 0001421 100.2305 259.8843 15.05583103183779","COUNTRY_CODE":"US","GP_ID":"228104844","ELEMENT_SET_NO":"999","ARG_OF_PERICENTER":"100.2305","MEAN_ELEMENT_THEORY":"SGP4","OBJECT_NAME":"STARLINK-1042","SITE":"AFETR","MEAN_MOTION":"15.05583103","BSTAR":"0.00063566000000","OBJECT_ID":"2019-074AL","TIME_SYSTEM":"UTC","EPHEMERIS_TYPE":"0","REV_AT_EPOCH":"18377"},{"EPOCH":"2023-03-14T17:51:51.611904","REF_FRAME":"TEME","APOAPSIS":"548.295","PERIAPSIS":"546.065","MEAN_ANOMALY":"260.5482","FILE":"3860643","INCLINATION":"53.0523","PERIOD":"95.591","TLE_LINE1":"1 44748U 19074AM  23073.74434736  .00026747  00000-0  18072-2 0  9997","CLASSIFICATION_TYPE":"U","DECAY_DATE":null,"OBJECT_TYPE":"PAYLOAD","ECCENTRICITY":"0.00016100","NORAD_CAT_ID":"44748","MEAN_MOTION_DDOT":"0.0000000000000","MEAN_MOTION_DOT":"0.00026747","CENTER_NAME":"EARTH","RA_OF_ASC_NODE":"84.0599","SEMIMAJOR_AXIS":"6925.315","LAUNCH_DATE":"2019-11-11","RCS_SIZE":"LARGE","TLE_LINE2":"2 44748  53.0523  84.0599 0001610  99.5689 260.5482 15.06411005183761","OBJECT_NAME":"STARLINK-1043","GP_ID":"228105096","COUNTRY_CODE":"US","MEAN_ELEMENT_THEORY":"SGP4","ELEMENT_SET_NO":"999","ARG_OF_PERICENTER":"99.5689","SITE":"AFETR","MEAN_MOTION":"15.06411005","TIME_SYSTEM":"UTC","OBJECT_ID":"2019-074AM","BSTAR":"0.00180720000000","REV_AT_EPOCH":"18376","EPHEMERIS_TYPE":"0"},{"PERIAPSIS":"546.163","FILE":"3860643","MEAN_ANOMALY":"284.4748","INCLINATION":"53.0528","PERIOD":"95.593","EPOCH":"2023-03-14T18:13:04.734048","REF_FRAME":"TEME","APOAPSIS":"548.394","NORAD_CAT_ID":"44751","OBJECT_TYPE":"PAYLOAD","ECCENTRICITY":"0.00016110","MEAN_MOTION_DDOT":"0.0000000000000","CLASSIFICATION_TYPE":"U","TLE_LINE1":"1 44751U 19074AQ  23073.75908257  .00016475  00000-0  11230-2 0  9992","DECAY_DATE":null,"RCS_SIZE":"LARGE","TLE_LINE2":"2 44751  53.0528  83.9937 0001611  75.6419 284.4748 15.06378863183765","COUNTRY_CODE":"US","GP_ID":"228104084","MEAN_ELEMENT_THEORY":"SGP4","ELEMENT_SET_NO":"999","ARG_OF_PERICENTER":"75.6419","OBJECT_NAME":"STARLINK-1046","SITE":"AFETR","MEAN_MOTION_DOT":"0.00016475","CENTER_NAME":"EARTH","RA_OF_ASC_NODE":"83.9937","SEMIMAJOR_AXIS":"6925.413","LAUNCH_DATE":"2019-11-11","EPHEMERIS_TYPE":"0","REV_AT_EPOCH":"18376","MEAN_MOTION":"15.06378863","BSTAR":"0.00112300000000","OBJECT_ID":"2019-074AQ","TIME_SYSTEM":"UTC"},{"NORAD_CAT_ID":"44752","ECCENTRICITY":"0.00020890","OBJECT_TYPE":"PAYLOAD","MEAN_MOTION_DDOT":"0.0000000000000","CLASSIFICATION_TYPE":"U","TLE_LINE1":"1 44752U 19074AR  23073.38128627 -.00004560  00000-0 -28767-3 0  9995","DECAY_DATE":null,"PERIOD":"95.595","PERIAPSIS":"545.881","FILE":"3860373","INCLINATION":"53.0559","MEAN_ANOMALY":"248.2399","APOAPSIS":"548.775","REF_FRAME":"TEME","EPOCH":"2023-03-14T09:09:03.133728","EPHEMERIS_TYPE":"0","REV_AT_EPOCH":"18398","MEAN_MOTION":"15.06362593","BSTAR":"-0.00028767000000","OBJECT_ID":"2019-074AR","TIME_SYSTEM":"UTC","SITE":"AFETR","RCS_SIZE":"LARGE","TLE_LINE2":"2 44752  53.0559  65.6835 0002089 111.8813 248.2399 15.06362593183982","GP_ID":"228073152","ELEMENT_SET_NO":"999","COUNTRY_CODE":"US","ARG_OF_PERICENTER":"111.8813","MEAN_ELEMENT_THEORY":"SGP4","OBJECT_NAME":"STARLINK-1047","LAUNCH_DATE":"2019-11-11","SEMIMAJOR_AXIS":"6925.463","MEAN_MOTION_DOT":"-0.00004560","CENTER_NAME":"EARTH","RA_OF_ASC_NODE":"65.6835"},{"SITE":"AFETR","MEAN_ELEMENT_THEORY":"SGP4","GP_ID":"228104346","COUNTRY_CODE":"US","ELEMENT_SET_NO":"999","ARG_OF_PERICENTER":"85.2964","OBJECT_NAME":"STARLINK-1048","TLE_LINE2":"2 44753  53.0540  43.2816 0001222  85.2964 274.8164 15.06446866184345","RCS_SIZE":"LARGE","SEMIMAJOR_AXIS":"6925.205","LAUNCH_DATE":"2019-11-11","RA_OF_ASC_NODE":"43.2816","CENTER_NAME":"EARTH","MEAN_MOTION_DOT":"0.00037022","EPHEMERIS_TYPE":"0","REV_AT_EPOCH":"18434","BSTAR":"0.00248820000000","OBJECT_ID":"2019-074AS","TIME_SYSTEM":"UTC","MEAN_MOTION":"15.06446866","PERIOD":"95.589","FILE":"3860643","INCLINATION":"53.0540","MEAN_ANOMALY":"274.8164","PERIAPSIS":"546.224","APOAPSIS":"547.916","REF_FRAME":"TEME","EPOCH":"2023-03-14T22:01:17.523552","MEAN_MOTION_DDOT":"0.0000000000000","NORAD_CAT_ID":"44753","OBJECT_TYPE":"PAYLOAD","ECCENTRICITY":"0.00012220","DECAY_DATE":null,"CLASSIFICATION_TYPE":"U","TLE_LINE1":"1 44753U 19074AS  23073.91756393  .00037022  00000-0  24882-2 0  9992"},{"TIME_SYSTEM":"UTC","OBJECT_ID":"2019-074AT","BSTAR":"0.00381970000000","MEAN_MOTION":"15.06391184","REV_AT_EPOCH":"18430","EPHEMERIS_TYPE":"0","RA_OF_ASC_NODE":"44.4578","CENTER_NAME":"EARTH","MEAN_MOTION_DOT":"0.00057062","LAUNCH_DATE":"2019-11-11","SEMIMAJOR_AXIS":"6925.376","OBJECT_NAME":"STARLINK-1049","COUNTRY_CODE":"US","GP_ID":"228105595","ARG_OF_PERICENTER":"120.5313","ELEMENT_SET_NO":"999","MEAN_ELEMENT_THEORY":"SGP4","TLE_LINE2":"2 44754  53.0535  44.4578 0001611 120.5313 239.5835 15.06391184184302","RCS_SIZE":"LARGE","SITE":"AFETR","DECAY_DATE":null,"TLE_LINE1":"1 44754U 19074AT  23073.65588698  .00057062  00000-0  38197-2 0  9995","CLASSIFICATION_TYPE":"U","MEAN_MOTION_DDOT":"0.0000000000000","OBJECT_TYPE":"PAYLOAD","ECCENTRICITY":"0.00016110","NORAD_CAT_ID":"44754","REF_FRAME":"TEME","EPOCH":"2023-03-14T15:44:28.635072","APOAPSIS":"548.356","INCLINATION":"53.0535","FILE":"3860643","MEAN_ANOMALY":"239.5835","PERIAPSIS":"546.125","PERIOD":"95.593"},{"GP_ID":"228072903","ARG_OF_PERICENTER":"91.6085","COUNTRY_CODE":"US","ELEMENT_SET_NO":"999","MEAN_ELEMENT_THEORY":"SGP4","OBJECT_NAME":"STARLINK-1052","TLE_LINE2":"2 44757  53.0546  65.6389 0001404  91.6085 268.5065 15.06392884183984","RCS_SIZE":"LARGE","SITE":"AFETR","RA_OF_ASC_NODE":"65.6389","MEAN_MOTION_DOT":"0.00012006","CENTER_NAME":"EARTH","SEMIMAJOR_AXIS":"6925.370","LAUNCH_DATE":"2019-11-11","EPHEMERIS_TYPE":"0","REV_AT_EPOCH":"18398","BSTAR":"0.00082368000000","TIME_SYSTEM":"UTC","OBJECT_ID":"2019-074AW","MEAN_MOTION":"15.06392884","FILE":"3860373","MEAN_ANOMALY":"268.5065","INCLINATION":"53.0546","PERIAPSIS":"546.263","PERIOD":"95.593","REF_FRAME":"TEME","EPOCH":"2023-03-14T09:24:58.790304","APOAPSIS":"548.208","MEAN_MOTION_DDOT":"0.0000000000000","NORAD_CAT_ID":"44757","ECCENTRICITY":"0.00014040","OBJECT_TYPE":"PAYLOAD","DECAY_DATE":null,"CLASSIFICATION_TYPE":"U","TLE_LINE1":"1 44757U 19074AW  23073.39234711  .00012006  00000-0  82368-3 0  9992"},{"EPHEMERIS_TYPE":"0","REV_AT_EPOCH":"18376","MEAN_MOTION":"15.06386788","BSTAR":"0.00163170000000","TIME_SYSTEM":"UTC","OBJECT_ID":"2019-074AX","SITE":"AFETR","RCS_SIZE":"LARGE","TLE_LINE2":"2 44758  53.0533  84.1649 0001615 121.1461 238.9686 15.06386788183769","GP_ID":"228104595","MEAN_ELEMENT_THEORY":"SGP4","COUNTRY_CODE":"US","ELEMENT_SET_NO":"999","ARG_OF_PERICENTER":"121.1461","OBJECT_NAME":"STARLINK-1053","LAUNCH_DATE":"2019-11-11","SEMIMAJOR_AXIS":"6925.389","CENTER_NAME":"EARTH","MEAN_MOTION_DOT":"0.00024098","RA_OF_ASC_NODE":"84.1649","NORAD_CAT_ID":"44758","OBJECT_TYPE":"PAYLOAD","ECCENTRICITY":"0.00016150","MEAN_MOTION_DDOT":"0.0000000000000","CLASSIFICATION_TYPE":"U","TLE_LINE1":"1 44758U 19074AX  23073.74066099  .00024098  00000-0  16317-2 0  9998","DECAY_DATE":null,"PERIOD":"95.593","PERIAPSIS":"546.136","MEAN_ANOMALY":"238.9686","FILE":"3860643","INCLINATION":"53.0533","APOAPSIS":"548.373","REF_FRAME":"TEME","EPOCH":"2023-03-14T17:46:33.109536"},{"LAUNCH_DATE":"2019-11-11","SEMIMAJOR_AXIS":"6925.392","MEAN_MOTION_DOT":"-0.00001102","CENTER_NAME":"EARTH","RA_OF_ASC_NODE":"84.1578","SITE":"AFETR","RCS_SIZE":"LARGE","TLE_LINE2":"2 44759  53.0542  84.1578 0001497 105.7551 254.3603 15.06385799181408","COUNTRY_CODE":"US","GP_ID":"228104845","ELEMENT_SET_NO":"999","ARG_OF_PERICENTER":"105.7551","MEAN_ELEMENT_THEORY":"SGP4","OBJECT_NAME":"STARLINK-1054","MEAN_MOTION":"15.06385799","BSTAR":"-0.00005511700000","OBJECT_ID":"2019-074AY","TIME_SYSTEM":"UTC","EPHEMERIS_TYPE":"0","REV_AT_EPOCH":"18140","APOAPSIS":"548.294","EPOCH":"2023-03-14T17:20:00.469824","REF_FRAME":"TEME","PERIOD":"95.593","PERIAPSIS":"546.220","FILE":"3860643","MEAN_ANOMALY":"254.3603","INCLINATION":"53.0542","CLASSIFICATION_TYPE":"U","TLE_LINE1":"1 44759U 19074AY  23073.72222766 -.00001102  00000-0 -55117-4 0  9998","DECAY_DATE":null,"NORAD_CAT_ID":"44759","ECCENTRICITY":"0.00014970","OBJECT_TYPE":"PAYLOAD","MEAN_MOTION_DDOT":"0.0000000000000"},{"TLE_LINE1":"1 44760U 19074AZ  23073.73712983  .00031977  00000-0  19072-2 0  9995","CLASSIFICATION_TYPE":"U","DECAY_DATE":null,"ECCENTRICITY":"0.00021850","OBJECT_TYPE":"PAYLOAD","NORAD_CAT_ID":"44760","MEAN_MOTION_DDOT":"0.0000000000000","REF_FRAME":"TEME","EPOCH":"2023-03-14T17:41:28.017312","APOAPSIS":"534.971","PERIAPSIS":"531.951","FILE":"3860643","MEAN_ANOMALY":"315.9582","INCLINATION":"53.0517","PERIOD":"95.308","MEAN_MOTION":"15.10898282","OBJECT_ID":"2019-074AZ","TIME_SYSTEM":"UTC","BSTAR":"0.00190720000000","REV_AT_EPOCH":"18378","EPHEMERIS_TYPE":"0","MEAN_MOTION_DOT":"0.00031977","CENTER_NAME":"EARTH","RA_OF_ASC_NODE":"83.0119","LAUNCH_DATE":"2019-11-11","SEMIMAJOR_AXIS":"6911.596","TLE_LINE2":"2 44760  53.0517  83.0119 0002185  44.1583 315.9582 15.10898282183781","RCS_SIZE":"LARGE","OBJECT_NAME":"STARLINK-1055","GP_ID":"228105097","ELEMENT_SET_NO":"999","COUNTRY_CODE":"US","ARG_OF_PERICENTER":"44.1583","MEAN_ELEMENT_THEORY":"SGP4","SITE":"AFETR"}];
